NORAD_CAT_ID,OBJECT_NAME,OBJECT_TYPE,EPOCH,MEAN_MOTION,ECCENTRICITY,INCLINATION,RA_OF_ASC_NODE,ARG_OF_PERICENTER,MEAN_ANOMALY,BSTAR,MEAN_MOTION_DOT,MEAN_MOTION_DDOT,TLE_LINE0,TLE_LINE1,TLE_LINE2,SEMIMAJOR_AXIS,PERIOD,APOGEE,PERIGEE,DECAYED
54764.0,STARLINK-5458,PAYLOAD,2023-09-14 14:00:01,15.1041445,0.0001265,53.2152,156.3064,108.7526,351.6547,0.0038859,0.00064879,0.0,0 STARLINK-5458,1 54764U 22175G   23257.58335648  .00064879  00000-0  38859-2 0  9993,2 54764  53.2152 156.3064 0001265 108.7526 351.6547 15.10414450 40813,6913.072,95.338,535.812,534.063,0.0
54764.0,STARLINK-5458,PAYLOAD,2023-09-14 22:00:00,15.10474907,0.0001284,53.2151,154.8076,102.4815,11.3744,-0.001482,-0.00024878,0.0,0 STARLINK-5458,1 54764U 22175G   23257.91667824 -.00024878  00000-0 -14820-2 0  9993,2 54764  53.2151 154.8076 0001284 102.4815  11.3744 15.10474907  5869,6912.888,95.334,535.64,533.865,0.0
54764.0,STARLINK-5458,PAYLOAD,2023-09-15 00:40:28,15.10472614,0.0001174,53.2157,154.3036,109.3392,250.7728,-0.00018812,-3.422e-05,0.0,0 STARLINK-5458,1 54764U 22175G   23258.02810619 -.00003422  00000-0 -18812-3 0  9996,2 54764  53.2157 154.3036 0001174 109.3392 250.7728 15.10472614 40885,6912.895,95.334,535.571,533.948,0.0
54764.0,STARLINK-5458,PAYLOAD,2023-09-16 00:29:41,15.10489598,0.0001224,53.2158,149.837,119.957,240.1544,0.0002107,3.218e-05,0.0,0 STARLINK-5458,1 54764U 22175G   23259.02062185  .00003218  00000-0  21070-3 0  9995,2 54764  53.2158 149.8370 0001224 119.9570 240.1544 15.10489598 41033,6912.843,95.333,535.554,533.862,0.0
54764.0,STARLINK-5458,PAYLOAD,2023-09-16 02:04:58,15.10490501,0.0001317,53.2158,149.5373,121.5226,238.5896,0.00022083,3.387e-05,0.0,0 STARLINK-5458,1 54764U 22175G   23259.08679072  .00003387  00000-0  22083-3 0  9992,2 54764  53.2158 149.5373 0001317 121.5226 238.5896 15.10490501 43201,6912.84,95.333,535.615,533.795,0.0
54764.0,STARLINK-5458,PAYLOAD,2023-09-16 16:22:32,15.10473199,0.0001468,53.2151,146.8599,101.7526,258.3632,0.00016088,2.386e-05,0.0,0 STARLINK-5458,1 54764U 22175G   23259.68231758  .00002386  00000-0  16088-3 0  9999,2 54764  53.2151 146.8599 0001468 101.7526 258.3632 15.10473199 41136,6912.893,95.334,535.773,533.743,0.0
54764.0,STARLINK-5458,PAYLOAD,2023-09-17 00:18:56,15.10479625,0.0001155,53.2153,145.3711,94.7157,265.3968,0.00026095,4.055e-05,0.0,0 STARLINK-5458,1 54764U 22175G   23260.01315729  .00004055  00000-0  26095-3 0  9993,2 54764  53.2153 145.3711 0001155  94.7157 265.3968 15.10479625 43347,6912.873,95.334,535.537,533.94,0.0
54764.0,STARLINK-5458,PAYLOAD,2023-09-17 16:11:45,15.10489442,0.0001182,53.2154,142.3937,94.1332,265.9796,0.00026534,4.129e-05,0.0,0 STARLINK-5458,1 54764U 22175G   23260.67483535  .00004129  00000-0  26534-3 0  9996,2 54764  53.2154 142.3937 0001182  94.1332 265.9796 15.10489442 41288,6912.843,95.333,535.525,533.891,0.0
54764.0,STARLINK-5458,PAYLOAD,2023-09-17 22:32:53,15.10496308,0.0001238,53.2151,141.2032,88.5696,271.5438,0.00056803,9.181e-05,0.0,0 STARLINK-5458,1 54764U 22175G   23260.93950645  .00009181  00000-0  56803-3 0  9991,2 54764  53.2151 141.2032 0001238  88.5696 271.5438 15.10496308 43480,6912.822,95.333,535.543,533.832,0.0
54764.0,STARLINK-5458,PAYLOAD,2023-09-18 20:46:50,15.10485137,0.0001334,53.2151,137.0337,88.1614,271.9531,0.00033308,5.258e-05,0.0,0 STARLINK-5458,1 54764U 22175G   23261.86586395  .00005258  00000-0  33308-3 0  9997,2 54764  53.2151 137.0337 0001334  88.1614 271.9531 15.10485137 43626,6912.856,95.334,535.644,533.799,0.0
54764.0,STARLINK-5458,PAYLOAD,2023-09-18 22:22:07,15.10485681,0.0001342,53.2152,136.7351,80.0442,280.0703,0.00036266,5.751e-05,0.0,0 STARLINK-5458,1 54764U 22175G   23261.93203208  .00005751  00000-0  36266-3 0  9998,2 54764  53.2152 136.7351 0001342  80.0442 280.0703 15.10485681 41475,6912.855,95.334,535.647,533.792,0.0
54764.0,STARLINK-5458,PAYLOAD,2023-09-19 20:36:03,15.10496191,0.0001387,53.2155,132.5654,79.2804,280.8345,0.00050304,8.096e-05,0.0,0 STARLINK-5458,1 54764U 22175G   23262.85837910  .00008096  00000-0  50304-3 0  9997,2 54764  53.2155 132.5654 0001387  79.2804 280.8345 15.10496191 43772,6912.823,95.333,535.647,533.729,0.0
54764.0,STARLINK-5458,PAYLOAD,2023-09-20 18:50:01,15.10472015,0.0001409,53.2159,128.3968,104.0991,256.0159,-5.1932e-05,-1.157e-05,0.0,0 STARLINK-5458,1 54764U 22175G   23263.78474060 -.00001157  00000-0 -51932-4 0  9995,2 54764  53.2159 128.3968 0001409 104.0991 256.0159 15.10472015 41759,6912.896,95.334,535.735,533.787,0.0
54764.0,STARLINK-5458,PAYLOAD,2023-09-20 22:00:35,15.10464097,0.0001284,53.2154,127.8001,97.6154,262.4984,-0.00022194,-3.984e-05,0.0,0 STARLINK-5458,1 54764U 22175G   23263.91708033 -.00003984  00000-0 -22194-3 0  9997,2 54764  53.2154 127.8001 0001284  97.6154 262.4984 15.10464097 43935,6912.921,95.335,535.673,533.898,0.0
54764.0,STARLINK-5458,PAYLOAD,2023-09-21 01:11:09,15.10463575,0.0001297,53.2153,127.205,98.0436,262.0704,-0.00019052,-3.462e-05,0.0,0 STARLINK-5458,1 54764U 22175G   23264.04941888 -.00003462  00000-0 -19052-3 0  9999,2 54764  53.2153 127.2050 0001297  98.0436 262.0704 15.10463575 41792,6912.922,95.335,535.684,533.891,0.0
54764.0,STARLINK-5458,PAYLOAD,2023-09-21 21:49:49,15.10474861,0.0001299,53.2151,123.3347,107.609,252.5045,5.5071e-05,6.24e-06,0.0,0 STARLINK-5458,1 54764U 22175G   23264.90960532  .00000624  00000-0  55071-4 0  9998,2 54764  53.2151 123.3347 0001299 107.6090 252.5045 15.10474861 44088,6912.888,95.334,535.651,533.855,0.0
54764.0,STARLINK-5458,PAYLOAD,2023-09-22 13:42:40,15.1045981,0.0001417,53.215,120.357,102.61,257.5052,7.4894e-05,9.54e-06,0.0,0 STARLINK-5458,1 54764U 22175G   23265.57130167  .00000954  00000-0  74894-4 0  9995,2 54764  53.2150 120.3570 0001417 102.6100 257.5052 15.10459810 44182,6912.934,95.335,535.778,533.819,0.0
54764.0,STARLINK-5458,PAYLOAD,2023-09-22 15:18:00,15.10358779,0.0001785,53.2151,120.0579,320.9236,39.1628,-0.0017644,-0.00029451,0.0,0 STARLINK-5458,1 54764U 22175G   23265.63750389 -.00029451  00000-0 -17644-2 0  9999,2 54764  53.2151 120.0579 0001785 320.9236  39.1628 15.10358779 42039,6913.242,95.342,536.341,533.873,0.0
54764.0,STARLINK-5458,PAYLOAD,2023-09-22 21:39:17,15.10138273,0.0001002,53.2153,118.8668,98.4725,261.6381,-0.0055206,-0.00090203,0.0,0 STARLINK-5458,1 54764U 22175G   23265.90229006 -.00090203  00000-0 -55206-2 0  9995,2 54764  53.2153 118.8668 0001002  98.4725 261.6381 15.10138273 44234,6913.915,95.356,536.473,535.087,0.0
54764.0,STARLINK-5458,PAYLOAD,2023-09-23 00:49:54,15.10117152,0.0001379,53.2155,118.2727,107.1776,252.9368,-0.0055208,-0.00090156,0.0,0 STARLINK-5458,1 54764U 22175G   23266.03465881 -.00090156  00000-0 -55208-2 0  9992,2 54764  53.2155 118.2727 0001379 107.1776 252.9368 15.10117152 42090,6913.979,95.357,536.798,534.891,0.0
54764.0,STARLINK-5458,PAYLOAD,2023-09-23 05:35:51,15.09918823,0.000144,53.2151,117.3797,95.5927,264.523,-0.010769,-0.00172638,0.0,0 STARLINK-5458,1 54764U 22175G   23266.23323164 -.00172638  00000-0 -10769-1 0  9999,2 54764  53.2151 117.3797 0001440  95.5927 264.5230 15.09918823 42123,6914.585,95.369,537.446,535.454,0.0
54764.0,STARLINK-5458,PAYLOAD,2023-09-24 06:00:00,15.08850412,0.0001349,53.2145,112.8128,107.4656,19.8627,-0.0020852,-0.0003333,0.0,0 STARLINK-5458,1 54764U 22175G   23267.25001157 -.00033330  00000-0 -20852-2 0  9997,2 54764  53.2145 112.8128 0001349 107.4656  19.8627 15.08850412 42279,6917.849,95.437,540.647,538.78,0.0
54764.0,STARLINK-5458,PAYLOAD,2023-09-24 14:00:01,15.08831623,0.0001377,53.2146,111.3156,107.4409,31.4808,0.0015096,0.00023813,0.0,0 STARLINK-5458,1 54764U 22175G   23267.58334491  .00023813  00000-0  15096-2 0  9990,2 54764  53.2146 111.3156 0001377 107.4409  31.4808 15.08831623  5860,6917.906,95.438,540.724,538.818,0.0
54764.0,STARLINK-5458,PAYLOAD,2023-09-24 22:00:00,15.08831678,0.0001293,53.2146,109.8211,93.4301,57.0894,-0.00085727,-0.00013902,0.0,0 STARLINK-5458,1 54764U 22175G   23267.91667824 -.00013902  00000-0 -85727-3 0  9995,2 54764  53.2146 109.8211 0001293  93.4301  57.0894 15.08831678 42372,6917.906,95.438,540.665,538.876,0.0
54764.0,STARLINK-5458,PAYLOAD,2023-09-25 14:00:01,15.08856754,0.0001339,53.2147,106.8264,97.8421,75.9108,0.0013494,0.00021263,0.0,0 STARLINK-5458,1 54764U 22175G   23268.58335648  .00021263  00000-0  13494-2 0  9993,2 54764  53.2147 106.8264 0001339  97.8421  75.9108 15.08856754 42481,6917.829,95.436,540.62,538.768,0.0
54764.0,STARLINK-5458,PAYLOAD,2023-09-25 22:00:00,15.08852956,0.000142,53.2147,105.3317,83.943,101.3715,-0.0034615,-0.00054977,0.0,0 STARLINK-5458,1 54764U 22175G   23268.91667824 -.00054977  00000-0 -34615-2 0  9992,2 54764  53.2147 105.3317 0001420  83.9430 101.3715 15.08852956 42535,6917.841,95.437,540.688,538.723,0.0
54764.0,STARLINK-5458,PAYLOAD,2023-09-26 00:00:00,15.08811884,0.0001425,53.2146,104.9577,81.6293,196.5963,0.001086,0.00017025,0.0,0 STARLINK-5458,1 54764U 22175G   23269.00001157  .00017025  00000-0  10860-2 0  9991,2 54764  53.2146 104.9577 0001425  81.6293 196.5963 15.08811884  5821,6917.966,95.439,540.817,538.846,0.0
54764.0,STARLINK-5458,PAYLOAD,2023-09-26 14:00:01,15.0882814,0.0001531,53.2149,102.337,91.4374,117.0803,0.0010124,0.00015856,0.0,0 STARLINK-5458,1 54764U 22175G   23269.58335648  .00015856  00000-0  10124-2 0  9992,2 54764  53.2149 102.3370 0001531  91.4374 117.0803 15.08828140 42638,6917.917,95.438,540.841,538.723,0.0
54764.0,STARLINK-5458,PAYLOAD,2023-09-26 22:00:00,15.08826808,0.0001528,53.2149,100.8422,82.3755,137.677,0.000974,0.00015242,0.0,0 STARLINK-5458,1 54764U 22175G   23269.91667824  .00015242  00000-0  97400-3 0  9995,2 54764  53.2149 100.8422 0001528  82.3755 137.6770 15.08826808  5816,6917.921,95.438,540.843,538.729,0.0
54764.0,STARLINK-5458,PAYLOAD,2023-09-26 22:37:07,15.08837273,0.0001482,53.2154,100.7217,105.4471,254.6685,0.00011097,1.478e-05,0.0,0 STARLINK-5458,1 54764U 22175G   23269.94244956  .00001478  00000-0  11097-3 0  9999,2 54764  53.2154 100.7217 0001482 105.4471 254.6685 15.08837273 42683,6917.889,95.438,540.779,538.728,0.0
